{
    "links": {
        "self": "http://www.neowsapp.com/rest/v1/neo/3774032?api_key=iIulBulltgU6a56xZRHN4H3l9WmuAYTsLGpBGhQ2"
    },
    "id": "3774032",
    "neo_reference_id": "3774032",
    "name": "(2017 FA159)",
    "designation": "2017 FA159",
    "nasa_jpl_url": "http://ssd.jpl.nasa.gov/sbdb.cgi?sstr=3774032",
    "absolute_magnitude_h": 28.546,
    "estimated_diameter": {
        "kilometers": {
            "estimated_diameter_min": 0.0051922426,
            "estimated_diameter_max": 0.0116102074
        },
        "meters": {
            "estimated_diameter_min": 5.1922426067,
            "estimated_diameter_max": 11.6102074243
        },
        "miles": {
            "estimated_diameter_min": 0.003226309,
            "estimated_diameter_max": 0.0072142462
        },
        "feet": {
            "estimated_diameter_min": 17.0349172338,
            "estimated_diameter_max": 38.0912329258
        }
    },
    "is_potentially_hazardous_asteroid": false,
    "close_approach_data": [
        {
            "close_approach_date": "2017-03-23",
            "close_approach_date_full": "2017-Mar-23 08:32",
            "epoch_date_close_approach": 1490257920000,
            "relative_velocity": {
                "kilometers_per_second": "6.9348213516",
                "kilometers_per_hour": "24965.356865882",
                "miles_per_hour": "15512.5018814698"
            },
            "miss_distance": {
                "astronomical": "0.0100068721",
                "lunar": "3.8926732469",
                "kilometers": "1497006.751522427",
                "miles": "930196.8615944126"
            },
            "orbiting_body": "Earth"
        },
        {
            "close_approach_date": "2017-03-23",
            "close_approach_date_full": "2017-Mar-23 17:10",
            "epoch_date_close_approach": 1490289000000,
            "relative_velocity": {
                "kilometers_per_second": "6.6145093033",
                "kilometers_per_hour": "23812.2334920382",
                "miles_per_hour": "14795.9958606501"
            },
            "miss_distance": {
                "astronomical": "0.0092879855",
                "lunar": "3.6130263595",
                "kilometers": "1389462.847390885",
                "miles": "863372.178268813"
            },
            "orbiting_body": "Moon"
        }
    ],
    "orbital_data": {
        "orbit_id": "1",
        "orbit_determination_date": "2017-04-22 06:18:26",
        "first_observation_date": "2017-03-18",
        "last_observation_date": "2017-03-18",
        "data_arc_in_days": null,
        "observations_used": 8,
        "orbit_uncertainty": "9",
        "minimum_orbit_intersection": ".00746661",
        "jupiter_tisserand_invariant": "4.708",
        "epoch_osculation": "2457830.5",
        "eccentricity": ".3213132727064919",
        "semi_major_axis": "1.396282445368731",
        "inclination": ".6474555741295908",
        "ascending_node_longitude": "142.5833096895377",
        "orbital_period": "602.6405402550508",
        "perihelion_distance": ".9476383632246802",
        "perihelion_argument": "78.8734855827817",
        "aphelion_distance": "1.844926527512781",
        "perihelion_time": "2457868.341517042451",
        "mean_anomaly": "337.394574003407",
        "mean_motion": ".5973710295819794",
        "equinox": "J2000",
        "orbit_class": {
            "orbit_class_type": "APO",
            "orbit_class_description": "Near-Earth asteroid orbits which cross the Earth’s orbit similar to that of 1862 Apollo",
            "orbit_class_range": "a (semi-major axis) > 1.0 AU; q (perihelion) < 1.017 AU"
        }
    },
    "is_sentry_object": false
}